{
    "links": {
        "self": "http://www.neowsapp.com/rest/v1/neo/3738918?api_key=iIulBulltgU6a56xZRHN4H3l9WmuAYTsLGpBGhQ2"
    },
    "id": "3738918",
    "neo_reference_id": "3738918",
    "name": "(2015 YJ1)",
    "designation": "2015 YJ1",
    "nasa_jpl_url": "http://ssd.jpl.nasa.gov/sbdb.cgi?sstr=3738918",
    "absolute_magnitude_h": 27.6,
    "estimated_diameter": {
        "kilometers": {
            "estimated_diameter_min": 0.0080270317,
            "estimated_diameter_max": 0.0179489885
        },
        "meters": {
            "estimated_diameter_min": 8.0270316728,
            "estimated_diameter_max": 17.948988478
        },
        "miles": {
            "estimated_diameter_min": 0.0049877647,
            "estimated_diameter_max": 0.0111529809
        },
        "feet": {
            "estimated_diameter_min": 26.3354065935,
            "estimated_diameter_max": 58.8877593581
        }
    },
    "is_potentially_hazardous_asteroid": false,
    "close_approach_data": [
        {
            "close_approach_date": "2014-03-03",
            "close_approach_date_full": "2014-Mar-03 07:21",
            "epoch_date_close_approach": 1393831260000,
            "relative_velocity": {
                "kilometers_per_second": "12.1471428549",
                "kilometers_per_hour": "43729.7142777865",
                "miles_per_hour": "27171.9438522169"
            },
            "miss_distance": {
                "astronomical": "0.2224593661",
                "lunar": "86.5366934129",
                "kilometers": "33279447.330110207",
                "miles": "20678889.6780745766"
            },
            "orbiting_body": "Earth"
        },
        {
            "close_approach_date": "2015-12-24",
            "close_approach_date_full": "2015-Dec-24 00:53",
            "epoch_date_close_approach": 1450918380000,
            "relative_velocity": {
                "kilometers_per_second": "6.080730649",
                "kilometers_per_hour": "21890.6303365653",
                "miles_per_hour": "13601.9863888508"
            },
            "miss_distance": {
                "astronomical": "0.018952386",
                "lunar": "7.372478154",
                "kilometers": "2835236.57701782",
                "miles": "1761734.316253116"
            },
            "orbiting_body": "Earth"
        },
        {
            "close_approach_date": "2017-11-17",
            "close_approach_date_full": "2017-Nov-17 11:19",
            "epoch_date_close_approach": 1510917540000,
            "relative_velocity": {
                "kilometers_per_second": "18.0149591632",
                "kilometers_per_hour": "64853.8529873566",
                "miles_per_hour": "40297.6621520605"
            },
            "miss_distance": {
                "astronomical": "0.4055639998",
                "lunar": "157.7643959222",
                "kilometers": "60671510.518760426",
                "miles": "37699528.4859928388"
            },
            "orbiting_body": "Earth"
        }
    ],
    "orbital_data": {
        "orbit_id": "6",
        "orbit_determination_date": "2017-04-06 08:29:40",
        "first_observation_date": "2015-12-18",
        "last_observation_date": "2015-12-22",
        "data_arc_in_days": 4,
        "observations_used": 36,
        "orbit_uncertainty": "8",
        "minimum_orbit_intersection": ".0133544",
        "jupiter_tisserand_invariant": "4.350",
        "epoch_osculation": "2457375.5",
        "eccentricity": ".3723194265183072",
        "semi_major_axis": "1.559850392665201",
        "inclination": "3.619483250734937",
        "ascending_node_longitude": "266.7595083773397",
        "orbital_period": "711.5785477439375",
        "perihelion_distance": ".9790877890137374",
        "perihelion_argument": "207.2548063321595",
        "aphelion_distance": "2.140612996316666",
        "perihelion_time": "2457399.033731669383",
        "mean_anomaly": "348.0938746286846",
        "mean_motion": ".5059174438877919",
        "equinox": "J2000",
        "orbit_class": {
            "orbit_class_type": "APO",
            "orbit_class_description": "Near-Earth asteroid orbits which cross the Earth’s orbit similar to that of 1862 Apollo",
            "orbit_class_range": "a (semi-major axis) > 1.0 AU; q (perihelion) < 1.017 AU"
        }
    },
    "is_sentry_object": false
}